[{"OBJECT_NAME":"STARLINK-31417","OBJECT_ID":"2024-046R","EPOCH":"2026-03-09T22:32:22.560000","MEAN_MOTION":15.30194762,"ECCENTRICITY":0.00010089,"INCLINATION":53.1611,"RA_OF_ASC_NODE":154.4681,"ARG_OF_PERICENTER":92.4386,"MEAN_ANOMALY":267.673,"EPHEMERIS_TYPE":0,"CLASSIFICATION_TYPE":"U","NORAD_CAT_ID":59216,"ELEMENT_SET_NO":999,"REV_AT_EPOCH":11295,"BSTAR":2.8031089e-5,"MEAN_MOTION_DOT":4.71e-6,"MEAN_MOTION_DDOT":0},{"OBJECT_NAME":"SCS-01 J","OBJECT_ID":"2025-100J","EPOCH":"2026-03-09T22:31:25.904064","MEAN_MOTION":15.31338011,"ECCENTRICITY":0.00063909,"INCLINATION":97.3693,"RA_OF_ASC_NODE":145.4824,"ARG_OF_PERICENTER":272.025,"MEAN_ANOMALY":88.026,"EPHEMERIS_TYPE":0,"CLASSIFICATION_TYPE":"U","NORAD_CAT_ID":63990,"ELEMENT_SET_NO":999,"REV_AT_EPOCH":4563,"BSTAR":0.0011832888,"MEAN_MOTION_DOT":0.00035886,"MEAN_MOTION_DDOT":0}]
